ONEWEB-0682             
1 56718U 23068J   25271.16863582  .00000137  00000+0  32872-3 0  9997
2 56718  87.8995 311.4904 0002360  93.2953 266.8447 13.15549332115009
ONEWEB-0683             
1 56719U 23068K   25271.19001890  .00000061  00000+0  12686-3 0  9994
2 56719  87.9005 311.4653 0002132  96.0321 264.1052 13.15550044114971
ONEWEB-0684             
1 56720U 23068L   25271.12188230  .00000176  00000+0  43249-3 0  9999
2 56720  87.8993 311.4757 0001572 145.2919 214.8314 13.15547264114793
ONEWEB-0686             
1 56721U 23068M   25271.05415549 -.00000047  00000+0 -15766-3 0  9990
2 56721  87.8960 281.0355 0002044  98.3972 261.7391 13.16593006117229
ONEWEB-0694             
1 56722U 23068N   25271.02091724  .00000094  00000+0  21219-3 0  9993
2 56722  87.8981 280.9748 0002276  90.6572 269.4820 13.16593180117275
ONEWEB-0696             
1 56723U 23068P   25271.15516625 -.00000025  00000+0 -10098-3 0  9999
2 56723  87.8999 311.5244 0001518  98.5202 261.6101 13.15546715114917
ONEWEB-0703             
1 56724U 23068Q   25271.16467287  .00000062  00000+0  13108-3 0  9994
2 56724  87.8995 311.5065 0000804  78.4234 281.6987 13.15546634114806
ONEWEB-0721             
1 56725U 23068R   25271.20574470  .00000127  00000+0  26935-3 0  9997
2 56725  86.6870 169.0468 0001686  74.2985 285.8334 13.22446100123318
ONEWEB-0015             
1 61594U 24188A   25271.00116163  .00000008  00000+0 -11862-4 0  9993
2 61594  87.8794  73.3257 0001913  71.9694 288.1643 13.11413561 50099
ONEWEB-0687             
1 61595U 24188B   25270.79538398  .00000068  00000+0  14259-3 0  9994
2 61595  87.9062  58.0926 0002257  90.4325 269.7065 13.17647801 51345
ONEWEB-0688             
1 61596U 24188C   25270.97594724 -.00000422  00000+0 -11213-2 0  9992
2 61596  87.9060  58.0571 0002422  63.5507 296.5873 13.17647133 51362
ONEWEB-0689             
1 61597U 24188D   25270.88247370 -.00000171  00000+0 -51958-3 0  9997
2 61597  87.8764  73.2991 0001976  94.7444 265.3910 13.11418626 50077
ONEWEB-0690             
1 61598U 24188E   25270.96896491  .00000220  00000+0  58505-3 0  9999
2 61598  87.8811  73.2694 0000876  89.4799 270.6429 13.11418166 50267
ONEWEB-0691             
1 61599U 24188F   25270.96386194  .00000007  00000+0 -15634-4 0  9995
2 61599  87.8733  73.2150 0001741  77.7082 282.4241 13.11416715 50110
ONEWEB-0692             
1 61600U 24188G   25270.90792906  .00000560  00000+0  15451-2 0  9992
2 61600  87.8786  73.3429 0001988 119.8023 240.3303 13.11412707 50093
ONEWEB-0693             
1 61601U 24188H   25270.91180800  .00000039  00000+0  66471-4 0  9999
2 61601  87.9060  58.0882 0000923  73.3237 286.7996 13.17649795 51348
ONEWEB-0695             
1 61602U 24188J   25270.88416515 -.00000038  00000+0 -14294-3 0  9997
2 61602  87.8792  73.3348 0002096 102.8165 257.3197 13.11418915 50087
