[{"OBJECT_NAME":"ONEWEB-0682","OBJECT_ID":"2023-068J","EPOCH":"2025-09-28T04:02:50.134848","MEAN_MOTION":13.15549332,"ECCENTRICITY":0.00023602,"INCLINATION":87.8995,"RA_OF_ASC_NODE":311.4904,"ARG_OF_PERICENTER":93.2953,"MEAN_ANOMALY":266.8447,"EPHEMERIS_TYPE":0,"CLASSIFICATION_TYPE":"U","NORAD_CAT_ID":56718,"ELEMENT_SET_NO":999,"REV_AT_EPOCH":11500,"BSTAR":0.00032872123,"MEAN_MOTION_DOT":1.37e-6,"MEAN_MOTION_DDOT":0},{"OBJECT_NAME":"ONEWEB-0683","OBJECT_ID":"2023-068K","EPOCH":"2025-09-28T04:33:37.632960","MEAN_MOTION":13.15550044,"ECCENTRICITY":0.00021328,"INCLINATION":87.9005,"RA_OF_ASC_NODE":311.4653,"ARG_OF_PERICENTER":96.0321,"MEAN_ANOMALY":264.1052,"EPHEMERIS_TYPE":0,"CLASSIFICATION_TYPE":"U","NORAD_CAT_ID":56719,"ELEMENT_SET_NO":999,"REV_AT_EPOCH":11497,"BSTAR":0.00012686468,"MEAN_MOTION_DOT":6.1e-7,"MEAN_MOTION_DDOT":0},{"OBJECT_NAME":"ONEWEB-0684","OBJECT_ID":"2023-068L","EPOCH":"2025-09-28T02:55:30.630720","MEAN_MOTION":13.15547264,"ECCENTRICITY":0.00015722,"INCLINATION":87.8993,"RA_OF_ASC_NODE":311.4757,"ARG_OF_PERICENTER":145.2919,"MEAN_ANOMALY":214.8314,"EPHEMERIS_TYPE":0,"CLASSIFICATION_TYPE":"U","NORAD_CAT_ID":56720,"ELEMENT_SET_NO":999,"REV_AT_EPOCH":11479,"BSTAR":0.00043249119,"MEAN_MOTION_DOT":1.76e-6,"MEAN_MOTION_DDOT":0},{"OBJECT_NAME":"ONEWEB-0686","OBJECT_ID":"2023-068M","EPOCH":"2025-09-28T01:17:59.034336","MEAN_MOTION":13.16593006,"ECCENTRICITY":0.00020444,"INCLINATION":87.896,"RA_OF_ASC_NODE":281.0355,"ARG_OF_PERICENTER":98.3972,"MEAN_ANOMALY":261.7391,"EPHEMERIS_TYPE":0,"CLASSIFICATION_TYPE":"U","NORAD_CAT_ID":56721,"ELEMENT_SET_NO":999,"REV_AT_EPOCH":11722,"BSTAR":-0.0001576603,"MEAN_MOTION_DOT":-4.7e-7,"MEAN_MOTION_DDOT":0},{"OBJECT_NAME":"ONEWEB-0694","OBJECT_ID":"2023-068N","EPOCH":"2025-09-28T00:30:07.249536","MEAN_MOTION":13.1659318,"ECCENTRICITY":0.00022764,"INCLINATION":87.8981,"RA_OF_ASC_NODE":280.9748,"ARG_OF_PERICENTER":90.6572,"MEAN_ANOMALY":269.482,"EPHEMERIS_TYPE":0,"CLASSIFICATION_TYPE":"U","NORAD_CAT_ID":56722,"ELEMENT_SET_NO":999,"REV_AT_EPOCH":11727,"BSTAR":0.00021218887,"MEAN_MOTION_DOT":9.4e-7,"MEAN_MOTION_DDOT":0},{"OBJECT_NAME":"ONEWEB-0696","OBJECT_ID":"2023-068P","EPOCH":"2025-09-28T03:43:26.364000","MEAN_MOTION":13.15546715,"ECCENTRICITY":0.00015181,"INCLINATION":87.8999,"RA_OF_ASC_NODE":311.5244,"ARG_OF_PERICENTER":98.5202,"MEAN_ANOMALY":261.6101,"EPHEMERIS_TYPE":0,"CLASSIFICATION_TYPE":"U","NORAD_CAT_ID":56723,"ELEMENT_SET_NO":999,"REV_AT_EPOCH":11491,"BSTAR":-0.00010097966,"MEAN_MOTION_DOT":-2.5e-7,"MEAN_MOTION_DDOT":0},{"OBJECT_NAME":"ONEWEB-0703","OBJECT_ID":"2023-068Q","EPOCH":"2025-09-28T03:57:07.735968","MEAN_MOTION":13.15546634,"ECCENTRICITY":8.041e-5,"INCLINATION":87.8995,"RA_OF_ASC_NODE":311.5065,"ARG_OF_PERICENTER":78.4234,"MEAN_ANOMALY":281.6987,"EPHEMERIS_TYPE":0,"CLASSIFICATION_TYPE":"U","NORAD_CAT_ID":56724,"ELEMENT_SET_NO":999,"REV_AT_EPOCH":11480,"BSTAR":0.00013107505,"MEAN_MOTION_DOT":6.2e-7,"MEAN_MOTION_DDOT":0},{"OBJECT_NAME":"ONEWEB-0721","OBJECT_ID":"2023-068R","EPOCH":"2025-09-28T04:56:16.342080","MEAN_MOTION":13.224461,"ECCENTRICITY":0.00016861,"INCLINATION":86.687,"RA_OF_ASC_NODE":169.0468,"ARG_OF_PERICENTER":74.2985,"MEAN_ANOMALY":285.8334,"EPHEMERIS_TYPE":0,"CLASSIFICATION_TYPE":"U","NORAD_CAT_ID":56725,"ELEMENT_SET_NO":999,"REV_AT_EPOCH":12331,"BSTAR":0.0002693505,"MEAN_MOTION_DOT":1.27e-6,"MEAN_MOTION_DDOT":0},{"OBJECT_NAME":"ONEWEB-0015","OBJECT_ID":"2024-188A","EPOCH":"2025-09-28T00:01:40.364832","MEAN_MOTION":13.11413561,"ECCENTRICITY":0.00019139,"INCLINATION":87.8794,"RA_OF_ASC_NODE":73.3257,"ARG_OF_PERICENTER":71.9694,"MEAN_ANOMALY":288.1643,"EPHEMERIS_TYPE":0,"CLASSIFICATION_TYPE":"U","NORAD_CAT_ID":61594,"ELEMENT_SET_NO":999,"REV_AT_EPOCH":5009,"BSTAR":-1.1861713e-5,"MEAN_MOTION_DOT":8.0e-8,"MEAN_MOTION_DDOT":0},{"OBJECT_NAME":"ONEWEB-0687","OBJECT_ID":"2024-188B","EPOCH":"2025-09-27T19:05:21.175872","MEAN_MOTION":13.17647801,"ECCENTRICITY":0.0002257,"INCLINATION":87.9062,"RA_OF_ASC_NODE":58.0926,"ARG_OF_PERICENTER":90.4325,"MEAN_ANOMALY":269.7065,"EPHEMERIS_TYPE":0,"CLASSIFICATION_TYPE":"U","NORAD_CAT_ID":61595,"ELEMENT_SET_NO":999,"REV_AT_EPOCH":5134,"BSTAR":0.0001425945,"MEAN_MOTION_DOT":6.8e-7,"MEAN_MOTION_DDOT":0},{"OBJECT_NAME":"ONEWEB-0688","OBJECT_ID":"2024-188C","EPOCH":"2025-09-27T23:25:21.841536","MEAN_MOTION":13.17647133,"ECCENTRICITY":0.00024223,"INCLINATION":87.906,"RA_OF_ASC_NODE":58.0571,"ARG_OF_PERICENTER":63.5507,"MEAN_ANOMALY":296.5873,"EPHEMERIS_TYPE":0,"CLASSIFICATION_TYPE":"U","NORAD_CAT_ID":61596,"ELEMENT_SET_NO":999,"REV_AT_EPOCH":5136,"BSTAR":-0.0011213291,"MEAN_MOTION_DOT":-4.22e-6,"MEAN_MOTION_DDOT":0},{"OBJECT_NAME":"ONEWEB-0689","OBJECT_ID":"2024-188D","EPOCH":"2025-09-27T21:10:45.727680","MEAN_MOTION":13.11418626,"ECCENTRICITY":0.00019762,"INCLINATION":87.8764,"RA_OF_ASC_NODE":73.2991,"ARG_OF_PERICENTER":94.7444,"MEAN_ANOMALY":265.391,"EPHEMERIS_TYPE":0,"CLASSIFICATION_TYPE":"U","NORAD_CAT_ID":61597,"ELEMENT_SET_NO":999,"REV_AT_EPOCH":5007,"BSTAR":-0.00051957693,"MEAN_MOTION_DOT":-1.71e-6,"MEAN_MOTION_DDOT":0},{"OBJECT_NAME":"ONEWEB-0690","OBJECT_ID":"2024-188E","EPOCH":"2025-09-27T23:15:18.568224","MEAN_MOTION":13.11418166,"ECCENTRICITY":8.76e-5,"INCLINATION":87.8811,"RA_OF_ASC_NODE":73.2694,"ARG_OF_PERICENTER":89.4799,"MEAN_ANOMALY":270.6429,"EPHEMERIS_TYPE":0,"CLASSIFICATION_TYPE":"U","NORAD_CAT_ID":61598,"ELEMENT_SET_NO":999,"REV_AT_EPOCH":5026,"BSTAR":0.00058505414,"MEAN_MOTION_DOT":2.2e-6,"MEAN_MOTION_DDOT":0},{"OBJECT_NAME":"ONEWEB-0691","OBJECT_ID":"2024-188F","EPOCH":"2025-09-27T23:07:57.671616","MEAN_MOTION":13.11416715,"ECCENTRICITY":0.00017413,"INCLINATION":87.8733,"RA_OF_ASC_NODE":73.215,"ARG_OF_PERICENTER":77.7082,"MEAN_ANOMALY":282.4241,"EPHEMERIS_TYPE":0,"CLASSIFICATION_TYPE":"U","NORAD_CAT_ID":61599,"ELEMENT_SET_NO":999,"REV_AT_EPOCH":5011,"BSTAR":-1.5634114e-5,"MEAN_MOTION_DOT":7.0e-8,"MEAN_MOTION_DDOT":0},{"OBJECT_NAME":"ONEWEB-0692","OBJECT_ID":"2024-188G","EPOCH":"2025-09-27T21:47:25.070784","MEAN_MOTION":13.11412707,"ECCENTRICITY":0.00019883,"INCLINATION":87.8786,"RA_OF_ASC_NODE":73.3429,"ARG_OF_PERICENTER":119.8023,"MEAN_ANOMALY":240.3303,"EPHEMERIS_TYPE":0,"CLASSIFICATION_TYPE":"U","NORAD_CAT_ID":61600,"ELEMENT_SET_NO":999,"REV_AT_EPOCH":5009,"BSTAR":0.0015450965,"MEAN_MOTION_DOT":5.6e-6,"MEAN_MOTION_DDOT":0},{"OBJECT_NAME":"ONEWEB-0693","OBJECT_ID":"2024-188H","EPOCH":"2025-09-27T21:53:00.211200","MEAN_MOTION":13.17649795,"ECCENTRICITY":9.232e-5,"INCLINATION":87.906,"RA_OF_ASC_NODE":58.0882,"ARG_OF_PERICENTER":73.3237,"MEAN_ANOMALY":286.7996,"EPHEMERIS_TYPE":0,"CLASSIFICATION_TYPE":"U","NORAD_CAT_ID":61601,"ELEMENT_SET_NO":999,"REV_AT_EPOCH":5134,"BSTAR":6.6470847e-5,"MEAN_MOTION_DOT":3.9e-7,"MEAN_MOTION_DDOT":0},{"OBJECT_NAME":"ONEWEB-0695","OBJECT_ID":"2024-188J","EPOCH":"2025-09-27T21:13:11.868960","MEAN_MOTION":13.11418915,"ECCENTRICITY":0.00020962,"INCLINATION":87.8792,"RA_OF_ASC_NODE":73.3348,"ARG_OF_PERICENTER":102.8165,"MEAN_ANOMALY":257.3197,"EPHEMERIS_TYPE":0,"CLASSIFICATION_TYPE":"U","NORAD_CAT_ID":61602,"ELEMENT_SET_NO":999,"REV_AT_EPOCH":5008,"BSTAR":-0.00014294299,"MEAN_MOTION_DOT":-3.8e-7,"MEAN_MOTION_DDOT":0}]
